NORAD_CAT_ID,OBJECT_NAME,OBJECT_TYPE,EPOCH,MEAN_MOTION,ECCENTRICITY,INCLINATION,RA_OF_ASC_NODE,ARG_OF_PERICENTER,MEAN_ANOMALY,BSTAR,MEAN_MOTION_DOT,MEAN_MOTION_DDOT,TLE_LINE0,TLE_LINE1,TLE_LINE2,SEMIMAJOR_AXIS,PERIOD,APOGEE,PERIGEE,DECAYED
52611.0,STARLINK-3980,PAYLOAD,2022-05-29 04:00:00,15.67721404,0.0001061,53.2171,8.738,113.2339,230.1401,-0.00821,-0.00829804,0.0,0 STARLINK-3980,1 52611U 22052P   22149.16667824 -.00829804  00000-0 -82100-2 0  9990,2 52611  53.2171   8.7380 0001061 113.2339 230.1401 15.67721404  2631,6743.56,91.853,366.141,364.71,0.0
52611.0,STARLINK-3980,PAYLOAD,2022-05-29 14:00:01,15.66975192,0.0001215,53.2174,6.6897,98.008,77.7305,-0.0084597,-0.00829375,0.0,0 STARLINK-3980,1 52611U 22052P   22149.58334491 -.00829375  00000-0 -84597-2 0  9992,2 52611  53.2174   6.6897 0001215  98.0080  77.7305 15.66975192  1303,6745.701,91.897,368.386,366.747,0.0
52611.0,STARLINK-3980,PAYLOAD,2022-05-29 20:54:28,15.67025239,8.950000000000001e-05,53.2146,5.2959,83.0,277.112,-0.0036047,-0.0037444,0.0,0 STARLINK-3980,1 52611U 22052P   22149.87116298 -.00374440  00000-0 -36047-2 0  9992,2 52611  53.2146   5.2959 0000895  83.0000 277.1120 15.67025239  2384,6745.557,91.894,368.026,366.819,0.0
52611.0,STARLINK-3980,PAYLOAD,2022-05-30 04:00:00,15.65931926,0.0001230999999999,53.2172,3.8306,108.8047,118.3588,-0.0088572,-0.00832002,0.0,0 STARLINK-3980,1 52611U 22052P   22150.16667824 -.00832002  00000-0 -88572-2 0  9995,2 52611  53.2172   3.8306 0001231 108.8047 118.3588 15.65931926  2791,6748.696999999999,91.958,371.393,369.731,0.0
52611.0,STARLINK-3980,PAYLOAD,2022-05-30 14:00:01,15.65183103,0.0001036,53.2176,1.7883,89.5282,327.3109,-0.0090597,-0.00826232,0.0,0 STARLINK-3980,1 52611U 22052P   22150.58334491 -.00826232  00000-0 -90597-2 0  9990,2 52611  53.2176   1.7883 0001036  89.5282 327.3109 15.65183103  1304,6750.849,92.002,373.414,372.015,0.0
52611.0,STARLINK-3980,PAYLOAD,2022-05-30 22:00:00,15.64588046,0.0001228,53.2175,0.1594,71.3623,64.4076,-0.0093145,-0.00829173,0.0,0 STARLINK-3980,1 52611U 22052P   22150.91667824 -.00829173  00000-0 -93145-2 0  9995,2 52611  53.2175   0.1594 0001228  71.3623  64.4076 15.64588046  1302,6752.561,92.037,375.255,373.597,0.0
52611.0,STARLINK-3980,PAYLOAD,2022-05-31 04:00:00,15.6414003,0.0001088,53.2171,358.9365,97.1393,7.3599,-0.0094715,-0.00828249,0.0,0 STARLINK-3980,1 52611U 22052P   22151.16667824 -.00828249  00000-0 -94715-2 0  9990,2 52611  53.2171 358.9365 0001088  97.1393   7.3599 15.64140030  2957,6753.85,92.063,376.45,374.98,0.0
52611.0,STARLINK-3980,PAYLOAD,2022-05-31 05:05:19,15.64765642,6.92e-05,53.2149,358.7292,102.1122,257.9972,-0.004203,-0.00397432,0.0,0 STARLINK-3980,1 52611U 22052P   22151.21202728 -.00397432  00000-0 -42030-2 0  9992,2 52611  53.2149 358.7292 0000692 102.1122 257.9972 15.64765642  2596,6752.05,92.027,374.382,373.448,0.0
52611.0,STARLINK-3980,PAYLOAD,2022-05-31 22:00:00,15.62798525,0.0001057,53.2174,355.2753,85.8207,282.4438,-0.010017,-0.00842344,0.0,0 STARLINK-3980,1 52611U 22052P   22151.91667824 -.00842344  00000-0 -10017-1 0  9997,2 52611  53.2174 355.2753 0001057  85.8207 282.4438 15.62798525  1307,6757.715,92.142,380.294,378.865,0.0
52611.0,STARLINK-3980,PAYLOAD,2022-06-01 04:06:19,15.63037404,0.0002882,53.2142,354.0489,48.38,311.7462,-0.0045191,-0.00399141,0.0,0 STARLINK-3980,1 52611U 22052P   22152.17106174 -.00399141  00000-0 -45191-2 0  9996,2 52611  53.2142 354.0489 0002882  48.3800 311.7462 15.63037404  3101,6757.026,92.128,380.838,376.944,0.0
52611.0,STARLINK-3980,PAYLOAD,2022-06-01 12:00:00,15.61751642,0.0001033,53.2174,352.4298,89.8156,321.0927,-0.010379,-0.00838056,0.0,0 STARLINK-3980,1 52611U 22052P   22152.50001157 -.00838056  00000-0 -10379-1 0  9990,2 52611  53.2174 352.4298 0001033  89.8156 321.0927 15.61751642  3168,6760.734,92.204,383.298,381.901,0.0
52611.0,STARLINK-3980,PAYLOAD,2022-06-01 20:00:01,15.61156356,0.0001214,53.2173,350.8092,73.9973,51.7185,-0.010649,-0.00840017,0.0,0 STARLINK-3980,1 52611U 22052P   22152.83334491 -.00840017  00000-0 -10649-1 0  9996,2 52611  53.2173 350.8092 0001214  73.9973  51.7185 15.61156356  1301,6762.453,92.239,385.139,383.497,0.0
52611.0,STARLINK-3980,PAYLOAD,2022-06-02 15:26:47,15.60542552,5.11e-05,53.2162,346.8839,277.752,82.3436,-0.0052498999999999,-0.00419465,0.0,0 STARLINK-3980,1 52611U 22052P   22153.64360374 -.00419465  00000-0 -52499-2 0  9994,2 52611  53.2162 346.8839 0000511 277.7520  82.3436 15.60542552  3334,6764.226,92.276,386.436,385.745,0.0
52611.0,STARLINK-3980,PAYLOAD,2022-06-02 21:35:54,15.60179628,0.0001166,53.2145,345.6409,34.7237,325.3853,-0.0047864,-0.00379087,0.0,0 STARLINK-3980,1 52611U 22052P   22153.89993489 -.00379087  00000-0 -47864-2 0  9995,2 52611  53.2145 345.6409 0001166  34.7237 325.3853 15.60179628  3375,6765.275,92.297,387.929,386.351,0.0
52611.0,STARLINK-3980,PAYLOAD,2022-06-03 17:33:33,15.63491154,0.001619,53.2169,341.5895,275.2597,84.6571,0.010979,0.0114992,0.0,0 STARLINK-3980,1 52611U 22052P   22154.73163969  .01149920  00000-0  10979-1 0  9997,2 52611  53.2169 341.5895 0016190 275.2597  84.6571 15.63491154  3500,6755.719,92.102,388.521,366.646,0.0
52611.0,STARLINK-3980,PAYLOAD,2022-06-03 19:08:47,15.58687817,0.0001095999999999,53.2162,341.291,89.8933,270.2207,-0.0050604,-0.00378605,0.0,0 STARLINK-3980,1 52611U 22052P   22154.79776636 -.00378605  00000-0 -50604-2 0  9999,2 52611  53.2162 341.2910 0001096  89.8933 270.2207 15.58687817  3528,6769.590999999999,92.385,392.198,390.714,0.0
52611.0,STARLINK-3980,PAYLOAD,2022-06-05 20:00:01,15.53993983,0.0001312,53.2175,331.4501,73.9291,173.5639,-0.0138919999999999,-0.00836463,0.0,0 STARLINK-3980,1 52611U 22052P   22156.83334491 -.00836463  00000-0 -13892-1 0  9993,2 52611  53.2175 331.4501 0001312  73.9291 173.5639 15.53993983  3838,6783.215999999999,92.664,405.971,404.191,0.0
52611.0,STARLINK-3980,PAYLOAD,2022-06-05 22:00:00,15.53843519,0.0001106,53.2174,331.0492,70.7531,283.1791,-0.013931,-0.0083433999999999,0.0,0 STARLINK-3980,1 52611U 22052P   22156.91667824 -.00834340  00000-0 -13931-1 0  9997,2 52611  53.2174 331.0492 0001106  70.7531 283.1791 15.53843519  1301,6783.653,92.673,406.269,404.768,0.0
52611.0,STARLINK-3980,PAYLOAD,2022-06-06 14:00:01,15.52651485,0.000127,53.2174,327.842,65.8421,57.989,-0.014594,-0.00836647,0.0,0 STARLINK-3980,1 52611U 22052P   22157.58334491 -.00836647  00000-0 -14594-1 0  9990,2 52611  53.2174 327.8420 0001270  65.8421  57.9890 15.52651485  1305,6787.125,92.745,409.852,408.128,0.0
52611.0,STARLINK-3980,PAYLOAD,2022-06-06 20:00:01,15.52204995,0.0001156,53.2174,326.6429,89.303,352.4988,-0.01486,-0.00838051,0.0,0 STARLINK-3980,1 52611U 22052P   22157.83334491 -.00838051  00000-0 -14860-1 0  9995,2 52611  53.2174 326.6429 0001156  89.3030 352.4988 15.52204995  3999,6788.427,92.771,411.076,409.507,0.0
52611.0,STARLINK-3980,PAYLOAD,2022-06-06 22:00:00,15.52049614,0.0001238,53.2173,326.2429,90.8073,96.8982,-0.014747,-0.00827944,0.0,0 STARLINK-3980,1 52611U 22052P   22157.91667824 -.00827944  00000-0 -14747-1 0  9996,2 52611  53.2173 326.2429 0001238  90.8073  96.8982 15.52049614  1300,6788.88,92.781,411.585,409.904,0.0
52611.0,STARLINK-3980,PAYLOAD,2022-06-07 14:00:01,15.50862448,0.0001163,53.2176,323.0446,78.6679,234.6318,-0.015616,-0.00838996,0.0,0 STARLINK-3980,1 52611U 22052P   22158.58334491 -.00838996  00000-0 -15616-1 0  9996,2 52611  53.2176 323.0446 0001163  78.6679 234.6318 15.50862448  1301,6792.344,92.852,414.999,413.419,0.0
52611.0,STARLINK-3980,PAYLOAD,2022-06-07 20:00:01,15.50306902,0.0001333,53.2176,321.8491,80.9591,188.7836,-0.010275,-0.00552477,0.0,0 STARLINK-3980,1 52611U 22052P   22158.83335648 -.00552477  00000-0 -10275-1 0  9992,2 52611  53.2176 321.8491 0001333  80.9591 188.7836 15.50306902  4142,6793.965999999999,92.885,416.737,414.926,0.0
52611.0,STARLINK-3980,PAYLOAD,2022-06-07 22:00:00,15.50096183,0.0001142,53.2175,321.4505,84.6306,290.4182,-0.0055438,-0.00305409,0.0,0 STARLINK-3980,1 52611U 22052P   22158.91667824 -.00305409  00000-0 -55438-2 0  9997,2 52611  53.2175 321.4505 0001142  84.6306 290.4182 15.50096183  1303,6794.581999999999,92.897,417.223,415.671,0.0
52611.0,STARLINK-3980,PAYLOAD,2022-06-08 04:00:01,15.49887227,0.0001186,53.2176,320.2534,79.7059,251.2089,-6.6346e-05,-4.215e-05,0.0,0 STARLINK-3980,1 52611U 22052P   22159.16668981 -.00004215  00000-0 -66346-4 0  9993,2 52611  53.2176 320.2534 0001186  79.7059 251.2089 15.49887227  4209,6795.193,92.91,417.864,416.252,0.0
52611.0,STARLINK-3980,PAYLOAD,2022-06-08 12:00:00,15.49805917,0.0001659,53.2154,318.6633,82.601,309.1389,0.0025208,0.0014489,0.0,0 STARLINK-3980,1 52611U 22052P   22159.50001157  .00144890  00000-0  25208-2 0  9999,2 52611  53.2154 318.6633 0001659  82.6010 309.1389 15.49805917  4258,6795.43,92.915,418.423,416.168,0.0
52611.0,STARLINK-3980,PAYLOAD,2022-06-08 14:00:01,15.49925249,0.0001732,53.2159,318.2649,80.4338,56.4962,-0.0021989,-0.00123484,0.0,0 STARLINK-3980,1 52611U 22052P   22159.58334491 -.00123484  00000-0 -21989-2 0  9997,2 52611  53.2159 318.2649 0001732  80.4338  56.4962 15.49925249  1300,6795.081999999999,92.908,418.12300000000016,415.77,0.0
52611.0,STARLINK-3980,PAYLOAD,2022-06-08 20:00:01,15.50074049,0.0001335,53.2169,317.069,82.1046,10.499,-0.01953,-0.01017275,0.0,0 STARLINK-3980,1 52611U 22052P   22159.83334491 -.01017275  00000-0 -19530-1 0  9994,2 52611  53.2169 317.0690 0001335  82.1046  10.4990 15.50074049  4307,6794.647,92.899,417.419,415.605,0.0
52611.0,STARLINK-3980,PAYLOAD,2022-06-08 22:00:01,15.49821928,0.0001296,53.2168,316.6693,86.3163,111.6313,-0.01693,-0.00873136,0.0,0 STARLINK-3980,1 52611U 22052P   22159.91668981 -.00873136  00000-0 -16930-1 0  9993,2 52611  53.2168 316.6693 0001296  86.3163 111.6313 15.49821928  1300,6795.384,92.914,418.129,416.36800000000005,0.0
